{"type":"FeatureCollection","features":[{"type":"Feature","id":"ckan_91517082_af13_4663_84ce_604a92d24e86.1","geometry":{"type":"MultiPolygon","coordinates":[[[[287544.7969,5826276.8862],[287534.9019,5826276.7962],[287525.5428,5826277.506],[287517.0414,5826278.9857],[287508.5894,5826281.3953],[287498.5707,5826285.8444],[287488.2799,5826292.0931],[287480.9988,5826298.1319],[287474.4351,5826305.3904],[287468.9434,5826313.0588],[287464.4824,5826321.907],[287461.852,5826330.6253],[287460.2028,5826340.7832],[287460.4255,5826349.2515],[287461.7861,5826358.2596],[287464.7958,5826367.9477],[287469.0754,5826376.6559],[287474.5919,5826384.2244],[287480.801,5826390.833],[287488.0161,5826396.7418],[287495.2642,5826401.3109],[287503.6172,5826405.3401],[287512.8196,5826408.4294],[287520.3563,5826410.539],[287528.8826,5826411.9487],[287536.1884,5826412.4986],[287544.9372,5826412.3686],[287554.1314,5826411.2888],[287563.6388,5826409.0693],[287574.7872,5826405.34],[287584.7647,5826400.841],[287593.258,5826395.532],[287600.5061,5826389.2533],[287606.1462,5826382.8746],[287611.0113,5826375.4161],[287614.59,5826368.3176],[287616.8493,5826361.139],[287618.5892,5826353.8505],[287619.0674,5826346.9819],[287619.1169,5826339.4434],[287617.6491,5826330.1753],[287615.5712,5826322.7068],[287612.1079,5826315.7083],[287608.2571,5826308.9196],[287603.1694,5826302.8209],[287596.7953,5826297.0821],[287589.6379,5826291.4232],[287583.6019,5826287.734],[287574.6469,5826282.875],[287566.6402,5826280.1955],[287559.054,5826278.5858],[287552.2429,5826277.4761],[287544.7969,5826276.8862]],[[287534.7399,5826353.6786],[287534.7399,5826327.3544],[287538.2836,5826327.3544],[287538.2836,5826353.4761],[287534.7399,5826353.6786]]]]},"geometry_name":"the_geom","properties":{"Asset_Id":"1272","Asset_Name":"Melton Recreation Reserve - Cricket/Football Oval","Asset_Type":"Cricket/Football Oval","Asset_Subt":"Grass","Locality":"Melton","fid":"1272"}},{"type":"Feature","id":"ckan_91517082_af13_4663_84ce_604a92d24e86.2","geometry":{"type":"MultiPolygon","coordinates":[[[[285905.1869,5825404.9443],[285885.6112,5825279.3599],[285788.3266,5825293.6169],[285806.3686,5825418.4915],[285905.1869,5825404.9443]],[[285849.5322,5825336.0634],[285849.5322,5825362.3824],[285845.3052,5825362.4622],[285845.3052,5825336.0634],[285849.5322,5825336.0634]]]]},"geometry_name":"the_geom","properties":{"Asset_Id":"1400672","Asset_Name":"Blackwood Drive Recreation Reserve - Cricket/Football Oval","Asset_Type":"Cricket/Football Oval","Asset_Subt":"Grass","Locality":"Melton South","fid":"1400672"}},{"type":"Feature","id":"ckan_91517082_af13_4663_84ce_604a92d24e86.3","geometry":{"type":"MultiPolygon","coordinates":[[[[286828.0809,5827704.8947],[286931.707,5827691.3678],[286924.059,5827630.7664],[286922.9804,5827622.1776],[286886.0996,5827627.0644],[286882.7045,5827624.3128],[286868.3154,5827626.241],[286865.6942,5827622.3792],[286852.9149,5827607.5199],[286851.8727,5827606.0699],[286850.9197,5827605.5559],[286839.2024,5827612.9044],[286844.6223,5827632.1259],[286819.4274,5827635.2073],[286828.0809,5827704.8947]]]]},"geometry_name":"the_geom","properties":{"Asset_Id":"1400712","Asset_Name":"Kurunjang Recreation Reserve - Soccer Field","Asset_Type":"Soccer Field","Asset_Subt":"Synthetic Turf","Locality":"Kurunjang","fid":"1400712"}},{"type":"Feature","id":"ckan_91517082_af13_4663_84ce_604a92d24e86.4","geometry":{"type":"MultiPolygon","coordinates":[[[[286836.4659,5827772.4203],[286870.0797,5827768.0986],[286873.2721,5827768.6565],[286876.4334,5827770.2452],[286878.379,5827770.283],[286901.192,5827767.1612],[286903.17,5827763.8455],[286940.6897,5827759.2791],[286933.0767,5827700.0074],[286932.397,5827696.8353],[286931.707,5827691.3678],[286828.0809,5827704.8947],[286836.4659,5827772.4203]],[[286880.1299,5827724.5628],[286876.89,5827698.6436],[286879.4321,5827698.3258],[286882.6759,5827724.2762],[286880.1299,5827724.5628]]]]},"geometry_name":"the_geom","properties":{"Asset_Id":"1400713","Asset_Name":"Kurunjang Recreation Reserve - Soccer Field","Asset_Type":"Soccer Field","Asset_Subt":"Synthetic Turf","Locality":"Kurunjang","fid":"1400713"}},{"type":"Feature","id":"ckan_91517082_af13_4663_84ce_604a92d24e86.5","geometry":{"type":"MultiPolygon","coordinates":[[[[300453.2148,5823723.9471],[300462.6744,5823799.4881],[300579.869,5823784.5058],[300570.0518,5823709.1287],[300453.2148,5823723.9471]]]]},"geometry_name":"the_geom","properties":{"Asset_Id":"1400767","Asset_Name":"Springside Recreation Reserve - Soccer Field","Asset_Type":"Soccer Field","Asset_Subt":"Synthetic Turf","Locality":"Caroline Springs","fid":"1400767"}},{"type":"Feature","id":"ckan_91517082_af13_4663_84ce_604a92d24e86.6","geometry":{"type":"MultiPolygon","coordinates":[[[[300527.9204,5823648.0425],[300419.828,5823661.4765],[300422.2166,5823680.3865],[300418.3351,5823680.9836],[300421.4204,5823703.8746],[300425.1029,5823703.5761],[300427.7901,5823723.1827],[300535.4227,5823709.287],[300527.9204,5823648.0425]]]]},"geometry_name":"the_geom","properties":{"Asset_Id":"1400768","Asset_Name":"Springside Recreation Reserve - Soccer Field","Asset_Type":"Soccer Field","Asset_Subt":"Synthetic Turf","Locality":"Caroline Springs","fid":"1400768"}},{"type":"Feature","id":"ckan_91517082_af13_4663_84ce_604a92d24e86.7","geometry":{"type":"MultiPolygon","coordinates":[[[[301850.7537,5823728.988],[301854.4519,5823729.0696],[301935.851,5823728.6493],[301933.8631,5823618.5399],[301852.3943,5823618.5871],[301846.9529,5823621.0347],[301839.6139,5823630.5242],[301833.0239,5823645.5368],[301829.7036,5823661.7694],[301829.7084,5823675.0567],[301831.219,5823689.6714],[301833.7955,5823702.0869],[301836.7006,5823709.6068],[301841.2256,5823717.4416],[301846.8238,5823725.2254],[301850.7537,5823728.988]],[[301877.872,5823686.0385],[301877.872,5823660.1193],[301881.2132,5823660.1193],[301881.2132,5823685.9373],[301877.872,5823686.0385]]]]},"geometry_name":"the_geom","properties":{"Asset_Id":"1400771","Asset_Name":"Taylors Hill Recreation Reserve - Cricket/Football Oval","Asset_Type":"Cricket/Football Oval","Asset_Subt":"Grass","Locality":"Taylors Hill","fid":"1400771"}},{"type":"Feature","id":"ckan_91517082_af13_4663_84ce_604a92d24e86.8","geometry":{"type":"MultiPolygon","coordinates":[[[[302009.3311,5823618.7962],[301933.8659,5823618.6957],[301935.851,5823728.6493],[302025.178,5823728.1881],[302025.2421,5823728.1329],[302053.7228,5823728.0408],[302053.8123,5823618.8555],[302009.3509,5823618.6766],[302009.3311,5823618.7962]],[[301984.1547,5823686.0982],[301984.1547,5823660.3897],[301987.8559,5823660.3897],[301987.8559,5823686.0982],[301984.1547,5823686.0982]]]]},"geometry_name":"the_geom","properties":{"Asset_Id":"1400772","Asset_Name":"Taylors Hill Recreation Reserve - Cricket/Football Oval","Asset_Type":"Cricket/Football Oval","Asset_Subt":"Grass","Locality":"Taylors Hill","fid":"1400772"}},{"type":"Feature","id":"ckan_91517082_af13_4663_84ce_604a92d24e86.14","geometry":{"type":"MultiPolygon","coordinates":[[[[300005.5399,5823202.4105],[300079.3129,5823197.8637],[300072.5997,5823087.1388],[299998.7553,5823091.638],[300005.5399,5823202.4105]]]]},"geometry_name":"the_geom","properties":{"Asset_Id":"2082058","Asset_Name":"City Vista Recreation Reserve - Soccer Field 2","Asset_Type":"Soccer Field","Asset_Subt":"Synthetic Turf","Locality":"Fraser Rise","fid":"2082058"}},{"type":"Feature","id":"ckan_91517082_af13_4663_84ce_604a92d24e86.15","geometry":{"type":"MultiPolygon","coordinates":[[[[283990.231,5814458.7305],[283997.8334,5814460.6311],[284007.0648,5814460.6311],[284020.0975,5814458.7305],[284035.3022,5814454.1147],[284047.5203,5814446.7838],[284060.8245,5814433.2082],[284071.142,5814412.8446],[284080.3735,5814381.0775],[284085.2608,5814358.5419],[284082.0026,5814334.3772],[284074.9433,5814315.9143],[284057.0234,5814296.0938],[284035.3024,5814285.7763],[284012.4952,5814283.3326],[283994.8469,5814286.8623],[283979.6421,5814293.9217],[283966.881,5814303.1532],[283957.1065,5814314.8282],[283949.7756,5814331.6621],[283937.5574,5814371.8461],[283936.4714,5814384.8788],[283937.0144,5814403.0702],[283943.5307,5814423.7052],[283953.8482,5814436.7379],[283968.2384,5814449.2275],[283978.8274,5814455.2008],[283990.231,5814458.7305]],[[284004.4176,5814385.7612],[284012.02,5814358.2025],[284015.6176,5814358.9492],[284008.3546,5814386.7115],[284004.4176,5814385.7612]]]]},"geometry_name":"the_geom","properties":{"Asset_Id":"2082071","Asset_Name":"Eynesbury Recreation Reserve - Cricket/Football Oval","Asset_Type":"Cricket/Football Oval","Asset_Subt":"Grass","Locality":"Eynesbury","fid":"2082071"}},{"type":"Feature","id":"ckan_91517082_af13_4663_84ce_604a92d24e86.16","geometry":{"type":"MultiPolygon","coordinates":[[[[299793.0781,5823106.4693],[299799.992,5823212.597],[299865.7247,5823208.6624],[299863.3442,5823169.3359],[299865.6295,5823169.2407],[299863.7251,5823141.0551],[299861.535,5823141.2931],[299859.4282,5823102.4189],[299793.0781,5823106.4693]]]]},"geometry_name":"the_geom","properties":{"Asset_Id":"2183806","Asset_Name":"City Vista Recreation Reserve - Soccer Field 4","Asset_Type":"Soccer Field","Asset_Subt":"Synthetic Turf","Locality":"Fraser Rise","fid":"2183806"}},{"type":"Feature","id":"ckan_91517082_af13_4663_84ce_604a92d24e86.17","geometry":{"type":"MultiPolygon","coordinates":[[[[294173.5237,5823302.4949],[294317.8913,5823287.0442],[294306.4455,5823181.356],[294162.0433,5823196.058],[294163.8385,5823213.4113],[294164.487,5823221.608],[294162.7538,5823221.8345],[294168.678,5823277.5791],[294170.7645,5823277.3859],[294173.5237,5823302.4949]],[[294239.6253,5823256.1389],[294236.5207,5823227.6019],[294240.0128,5823227.1829],[294243.0898,5823255.7215],[294239.6253,5823256.1389]]]]},"geometry_name":"the_geom","properties":{"Asset_Id":"2220290","Asset_Name":"Wildwood Rd Sports Reserve - Soccer Field","Asset_Type":"Soccer Field","Asset_Subt":"Grass","Locality":"Aintree","fid":"2220290"}},{"type":"Feature","id":"ckan_91517082_af13_4663_84ce_604a92d24e86.18","geometry":{"type":"MultiPolygon","coordinates":[[[[302293.1504,5821118.4248],[302304.1586,5821117.425],[302310.6316,5821115.6753],[302316.8407,5821113.0859],[302326.8594,5821107.8069],[302336.8616,5821101.0683],[302342.2874,5821095.5094],[302346.2041,5821089.3907],[302352.2648,5821078.173],[302357.2206,5821066.0354],[302359.2243,5821054.7777],[302360.2221,5821044.0099],[302359.7273,5821032.5922],[302357.5504,5821019.6449],[302354.5902,5821008.4972],[302350.5497,5820998.6292],[302344.5055,5820986.7216],[302336.8616,5820975.9338],[302327.4613,5820966.2558],[302316.8407,5820957.5775],[302308.9164,5820952.4386],[302300.1593,5820948.5694],[302288.846,5820946.4898],[302274.4653,5820945.8999],[302267.4728,5820946.6997],[302259.9114,5820948.6094],[302253.0591,5820951.7387],[302247.4354,5820954.9081],[302239.1401,5820961.3168],[302232.4197,5820969.5951],[302225.7323,5820980.6728],[302221.0734,5820990.2809],[302217.7668,5821001.2387],[302215.4003,5821012.9763],[302214.8478,5821024.4339],[302215.4003,5821035.0018],[302216.7608,5821044.5898],[302219.3995,5821054.6878],[302223.7203,5821066.3754],[302228.4122,5821075.7135],[302234.4812,5821085.5015],[302240.4264,5821093.06],[302246.4789,5821100.2285],[302253.1085,5821106.0773],[302263.3416,5821111.5362],[302273.7974,5821115.4154],[302283.5027,5821117.385],[302293.1504,5821118.4248]],[[302285.6416,5821046.0574],[302282.351,5821019.1257],[302286.3452,5821018.6377],[302289.6312,5821045.5326],[302285.6416,5821046.0574]]]]},"geometry_name":"the_geom","properties":{"Asset_Id":"46106","Asset_Name":"Burnside Heights Recreation Reserve - Cricket/Football Oval","Asset_Type":"Cricket/Football Oval","Asset_Subt":"Grass","Locality":"Burnside Heights","fid":"46106"}},{"type":"Feature","id":"ckan_91517082_af13_4663_84ce_604a92d24e86.19","geometry":{"type":"MultiPolygon","coordinates":[[[[302126.8564,5821084.4417],[302137.3121,5821083.7219],[302145.1374,5821082.2022],[302152.6659,5821079.7127],[302159.6089,5821075.4836],[302165.348,5821070.7045],[302171.5489,5821063.696],[302177.354,5821054.6878],[302181.4769,5821044.5199],[302183.0271,5821034.6619],[302181.9221,5821023.934],[302181.0976,5821018.7851],[302179.6958,5821013.6461],[302176.6201,5821005.1279],[302172.6868,5820995.9597],[302168.267,5820987.7414],[302162.8907,5820979.913],[302157.0032,5820973.7143],[302149.9942,5820967.9255],[302139.3901,5820960.5869],[302131.3091,5820956.5778],[302120.8864,5820953.7983],[302108.9464,5820952.9085],[302099.0267,5820953.1985],[302089.5934,5820955.248],[302082.7576,5820958.9473],[302075.0725,5820965.6559],[302069.3334,5820972.2946],[302067.0905,5820974.984],[302063.8994,5820980.273],[302061.6482,5820985.062],[302059.9331,5820990.6508],[302057.8964,5820999.959],[302057.6902,5821011.5466],[302059.9001,5821023.3242],[302063.2892,5821034.8219],[302067.2389,5821044.01],[302071.1969,5821050.6386],[302076.2434,5821057.3573],[302083.0627,5821063.9959],[302089.2636,5821069.0349],[302098.3588,5821075.7135],[302107.2808,5821080.7125],[302116.2605,5821083.252],[302126.8564,5821084.4417]],[[302123.0395,5821032.6476],[302119.394,5821033.0978],[302116.4578,5821006.2167],[302120.1089,5821005.8179],[302123.0395,5821032.6476]]]]},"geometry_name":"the_geom","properties":{"Asset_Id":"46107","Asset_Name":"Burnside Heights Recreation Reserve - Cricket/Football Oval","Asset_Type":"Cricket/Football Oval","Asset_Subt":"Grass","Locality":"Burnside Heights","fid":"46107"}},{"type":"Feature","id":"ckan_91517082_af13_4663_84ce_604a92d24e86.41","geometry":{"type":"MultiPolygon","coordinates":[[[[284891.4686,5831702.3424],[284961.7315,5831672.9684],[284916.6762,5831561.5311],[284846.3968,5831591.455],[284891.4686,5831702.3424]]]]},"geometry_name":"the_geom","properties":{"Asset_Id":"5223","Asset_Name":"MacPherson Park - Rugby Field","Asset_Type":"Rugby Field","Asset_Subt":"Grass","Locality":"Harkness","fid":"5223"}},{"type":"Feature","id":"ckan_91517082_af13_4663_84ce_604a92d24e86.9","geometry":{"type":"MultiPolygon","coordinates":[[[[300409.1785,5824793.2324],[300409.3026,5824793.2918],[300410.2552,5824793.736],[300411.2154,5824794.1635],[300412.1829,5824794.5741],[300413.1574,5824794.9679],[300414.1387,5824795.3445],[300415.1263,5824795.704],[300416.1202,5824796.0462],[300417.1198,5824796.371],[300418.1249,5824796.6783],[300419.1353,5824796.968],[300420.1505,5824797.24],[300421.1704,5824797.4943],[300422.1945,5824797.7307],[300423.2226,5824797.9492],[300424.2544,5824798.1498],[300425.2895,5824798.3323],[300426.3276,5824798.4967],[300427.3684,5824798.643],[300428.4117,5824798.7711],[300429.457,5824798.8809],[300430.5041,5824798.9725],[300431.5526,5824799.0458],[300432.6022,5824799.1008],[300433.6526,5824799.1375],[300434.7035,5824799.1559],[300435.7546,5824799.1559],[300436.8055,5824799.1375],[300437.8559,5824799.1008],[300438.9056,5824799.0458],[300439.9541,5824798.9725],[300441.0011,5824798.8809],[300442.0465,5824798.771],[300443.0897,5824798.6429],[300444.1305,5824798.4966],[300445.1687,5824798.3322],[300446.2038,5824798.1496],[300447.2355,5824797.9491],[300448.2636,5824797.7306],[300449.2877,5824797.4941],[300450.3076,5824797.2398],[300451.3228,5824796.9678],[300452.3332,5824796.6781],[300453.3383,5824796.3708],[300454.3379,5824796.0459],[300455.3317,5824795.7037],[300456.3194,5824795.3443],[300457.3007,5824794.9676],[300458.2752,5824794.5738],[300459.2427,5824794.1631],[300460.2029,5824793.7356],[300461.1555,5824793.2914],[300462.1002,5824792.8307],[300463.0367,5824792.3535],[300463.9647,5824791.86],[300464.884,5824791.3505],[300465.7943,5824790.8249],[300466.6952,5824790.2836],[300467.5866,5824789.7266],[300468.468,5824789.1541],[300469.3394,5824788.5664],[300470.2004,5824787.9635],[300471.0507,5824787.3457],[300471.8901,5824786.7131],[300472.7184,5824786.066],[300473.5352,5824785.4046],[300474.3404,5824784.729],[300475.1336,5824784.0394],[300475.9147,5824783.3361],[300476.6834,5824782.6192],[300477.4395,5824781.8891],[300478.1827,5824781.1459],[300478.9128,5824780.3898],[300479.6296,5824779.6211],[300480.3329,5824778.84],[300481.0225,5824778.0467],[300481.6981,5824777.2416],[300482.3596,5824776.4247],[300483.0067,5824775.5965],[300483.6392,5824774.7571],[300484.257,5824773.9067],[300484.8599,5824773.0457],[300485.4476,5824772.1744],[300486.02,5824771.2929],[300486.577,5824770.4015],[300487.1184,5824769.5006],[300487.6439,5824768.5903],[300488.1534,5824767.671],[300488.6469,5824766.743],[300489.1241,5824765.8065],[300489.5848,5824764.8618],[300490.029,5824763.9092],[300490.4565,5824762.949],[300490.8672,5824761.9815],[300491.2609,5824761.0069],[300491.6376,5824760.0257],[300491.997,5824759.038],[300492.3392,5824758.0442],[300492.664,5824757.0445],[300492.9713,5824756.0394],[300493.261,5824755.0291],[300493.5331,5824754.0138],[300493.7873,5824752.9939],[300494.0238,5824751.9698],[300494.2423,5824750.9417],[300494.4428,5824749.91],[300494.6253,5824748.8749],[300494.7897,5824747.8367],[300494.936,5824746.7959],[300495.0641,5824745.7527],[300495.174,5824744.7073],[300495.2656,5824743.6603],[300495.3389,5824742.6118],[300495.3939,5824741.5621],[300495.4306,5824740.5117],[300495.4489,5824739.4608],[300495.4489,5824738.4097],[300495.4305,5824737.3588],[300495.3938,5824736.3084],[300495.3388,5824735.2588],[300495.2655,5824734.2103],[300495.1739,5824733.1632],[300495.064,5824732.1179],[300494.9359,5824731.0747],[300494.7896,5824730.0338],[300494.6252,5824728.9957],[300494.4427,5824727.9606],[300494.2421,5824726.9289],[300494.0236,5824725.9008],[300493.7871,5824724.8766],[300493.5328,5824723.8568],[300493.2608,5824722.8415],[300492.9711,5824721.8312],[300492.6638,5824720.826],[300492.339,5824719.8264],[300491.9968,5824718.8326],[300491.6373,5824717.8449],[300491.2606,5824716.8637],[300490.8668,5824715.8892],[300490.4561,5824714.9217],[300490.0286,5824713.9615],[300489.5844,5824713.0089],[300489.1237,5824712.0642],[300488.6465,5824711.1277],[300488.153,5824710.1996],[300487.6434,5824709.2804],[300487.1179,5824708.3701],[300486.5766,5824707.4692],[300486.0196,5824706.5778],[300485.4471,5824705.6963],[300484.8594,5824704.825],[300484.2565,5824703.964],[300483.6387,5824703.1136],[300483.0061,5824702.2742],[300482.359,5824701.446],[300481.6975,5824700.6292],[300481.0219,5824699.824],[300480.3324,5824699.0307],[300479.6291,5824698.2497],[300478.9122,5824697.481],[300478.1821,5824696.7249],[300477.4389,5824695.9817],[300476.6828,5824695.2516],[300475.9141,5824694.5347],[300475.133,5824693.8314],[300474.3397,5824693.1419],[300473.5345,5824692.4663],[300472.7177,5824691.8048],[300471.8894,5824691.1577],[300471.05,5824690.5252],[300470.1997,5824689.9074],[300469.3387,5824689.3045],[300468.4673,5824688.7168],[300467.5858,5824688.1443],[300466.6945,5824687.5874],[300465.7935,5824687.046],[300464.8833,5824686.5205],[300463.964,5824686.0109],[300463.0359,5824685.5175],[300462.0994,5824685.0403],[300461.1547,5824684.5796],[300460.2021,5824684.1354],[300459.2419,5824683.7079],[300458.2744,5824683.2972],[300457.2999,5824682.9035],[300456.3292,5824682.5307],[300456.3186,5824682.5268],[300455.3309,5824682.1673],[300454.3371,5824681.8251],[300453.3375,5824681.5003],[300452.3323,5824681.193],[300451.322,5824680.9033],[300450.3067,5824680.6313],[300449.2869,5824680.377],[300448.2628,5824680.1406],[300447.2346,5824679.9221],[300446.2029,5824679.7215],[300445.1678,5824679.539],[300444.1297,5824679.3746],[300443.0888,5824679.2283],[300442.0456,5824679.1003],[300441.0003,5824678.9904],[300439.9532,5824678.8988],[300438.9047,5824678.8255],[300437.8551,5824678.7705],[300436.8046,5824678.7338],[300435.7537,5824678.7155],[300434.7027,5824678.7155],[300433.6518,5824678.7338],[300432.6013,5824678.7705],[300431.5517,5824678.8255],[300430.5032,5824678.8989],[300429.4561,5824678.9905],[300428.4108,5824679.1003],[300427.3676,5824679.2284],[300426.3267,5824679.3747],[300425.2886,5824679.5392],[300424.2535,5824679.7217],[300423.2218,5824679.9222],[300422.1937,5824680.1408],[300421.1695,5824680.3772],[300420.1497,5824680.6315],[300419.1344,5824680.9035],[300418.1241,5824681.1933],[300417.119,5824681.5006],[300416.1193,5824681.8254],[300415.1255,5824682.1676],[300414.1378,5824682.5271],[300413.1566,5824682.9037],[300412.1821,5824683.2975],[300411.2146,5824683.7082],[300410.2544,5824684.1357],[300409.3018,5824684.5799],[300408.3571,5824685.0407],[300407.4206,5824685.5178],[300406.4925,5824686.0113],[300405.5733,5824686.5209],[300404.663,5824687.0464],[300403.7621,5824687.5878],[300402.8707,5824688.1447],[300401.9892,5824688.7172],[300401.1179,5824689.305],[300400.2569,5824689.9078],[300399.4065,5824690.5256],[300398.5671,5824691.1582],[300397.7389,5824691.8053],[300396.9221,5824692.4668],[300396.1169,5824693.1424],[300395.3236,5824693.8319],[300394.5426,5824694.5352],[300393.7739,5824695.2521],[300393.0178,5824695.9822],[300392.2746,5824696.7254],[300391.5444,5824697.4815],[300390.8276,5824698.2502],[300390.1243,5824699.0313],[300389.4348,5824699.8246],[300388.7592,5824700.6297],[300388.0977,5824701.4466],[300387.4506,5824702.2748],[300386.8181,5824703.1143],[300386.2003,5824703.9646],[300385.5974,5824704.8256],[300385.0097,5824705.697],[300384.4372,5824706.5785],[300383.8803,5824707.4698],[300383.3389,5824708.3708],[300382.8134,5824709.281],[300382.3038,5824710.2003],[300381.8104,5824711.1284],[300381.3332,5824712.0649],[300380.8725,5824713.0096],[300380.4283,5824713.9622],[300380.0008,5824714.9224],[300379.5901,5824715.8899],[300379.1964,5824716.8644],[300378.8197,5824717.8457],[300378.4602,5824718.8333],[300378.118,5824719.8272],[300377.7932,5824720.8268],[300377.486,5824721.8319],[300377.1962,5824722.8423],[300376.9242,5824723.8575],[300376.6699,5824724.8774],[300376.4335,5824725.9015],[300376.215,5824726.9296],[300376.0144,5824727.9614],[300375.8319,5824728.9965],[300375.6675,5824730.0346],[300375.5213,5824731.0754],[300375.3932,5824732.1187],[300375.2833,5824733.164],[300375.1917,5824734.211],[300375.1184,5824735.2596],[300375.0634,5824736.3092],[300375.0267,5824737.3596],[300375.0084,5824738.4105],[300375.0084,5824739.4616],[300375.0267,5824740.5125],[300375.0634,5824741.5629],[300375.1184,5824742.6125],[300375.1918,5824743.661],[300375.2834,5824744.7081],[300375.3933,5824745.7534],[300375.5214,5824746.7967],[300375.6677,5824747.8375],[300375.8321,5824748.8756],[300376.0146,5824749.9107],[300376.2152,5824750.9425],[300376.4337,5824751.9706],[300376.6702,5824752.9947],[300376.9244,5824754.0145],[300377.1965,5824755.0298],[300377.4862,5824756.0401],[300377.7935,5824757.0453],[300378.1183,5824758.0449],[300378.4605,5824759.0387],[300378.82,5824760.0264],[300379.1967,5824761.0076],[300379.5904,5824761.9822],[300380.0011,5824762.9497],[300380.4286,5824763.9099],[300380.8728,5824764.8625],[300381.3336,5824765.8071],[300381.8108,5824766.7437],[300382.3042,5824767.6717],[300382.8138,5824768.591],[300383.3394,5824769.5012],[300383.8807,5824770.4022],[300384.4377,5824771.2935],[300385.0102,5824772.175],[300385.5979,5824773.0464],[300386.2008,5824773.9074],[300386.8186,5824774.7577],[300387.4511,5824775.5971],[300388.0983,5824776.4253],[300388.7597,5824777.2422],[300389.4353,5824778.0473],[300390.1249,5824778.8406],[300390.8282,5824779.6217],[300391.545,5824780.3904],[300392.2752,5824781.1464],[300393.0184,5824781.8896],[300393.7745,5824782.6198],[300394.5432,5824783.3366],[300395.3243,5824784.0399],[300396.1176,5824784.7295],[300396.9227,5824785.4051],[300397.7396,5824786.0665],[300398.5678,5824786.7136],[300399.4072,5824787.3462],[300400.2576,5824787.9639],[300401.1186,5824788.5668],[300401.99,5824789.1546],[300402.8715,5824789.727],[300403.7628,5824790.284],[300404.6638,5824790.8253],[300405.574,5824791.3508],[300406.4933,5824791.8604],[300407.4213,5824792.3538],[300409.1785,5824793.2324]],[[300425.7527,5824748.879],[300436.5658,5824726.555],[300438.9249,5824727.6977],[300427.7758,5824750.065],[300425.7527,5824748.879]]]]},"geometry_name":"the_geom","properties":{"Asset_Id":"2036561","Asset_Name":"Boronia Drive Reserve - Cricket/Football Oval","Asset_Type":"Cricket/Football Oval","Asset_Subt":"Grass","Locality":"Hillside","fid":"2036561"}},{"type":"Feature","id":"ckan_91517082_af13_4663_84ce_604a92d24e86.10","geometry":{"type":"MultiPolygon","coordinates":[[[[294054.6657,5822401.8987],[294063.0954,5822400.6817],[294071.0353,5822398.6337],[294080.029,5822394.7156],[294087.4792,5822390.0852],[294094.6771,5822384.1191],[294100.4355,5822377.8265],[294105.897,5822369.842],[294110.5719,5822360.9077],[294114.4009,5822352.5374],[294117.3691,5822342.1486],[294119.0906,5822333.6002],[294120.3076,5822322.6475],[294120.1295,5822311.6354],[294119.1203,5822302.1371],[294117.3691,5822292.6389],[294112.8129,5822279.1038],[294108.7167,5822270.1102],[294102.0234,5822259.2465],[294095.9386,5822251.7073],[294087.8947,5822243.4556],[294080.6523,5822238.0535],[294072.1929,5822233.5418],[294061.2699,5822229.8612],[294051.3561,5822228.2881],[294040.0175,5822228.4365],[294027.6252,5822230.9595],[294019.3143,5822234.0761],[294012.4874,5822238.0535],[294005.3043,5822243.0401],[293999.546,5822248.4719],[293994.7968,5822254.1709],[293990.018,5822261.6211],[293986.3671,5822268.1808],[293983.1615,5822276.1356],[293979.2137,5822287.9194],[293976.6611,5822304.0665],[293976.4533,5822318.8185],[293978.3827,5822332.3832],[293980.7869,5822341.9112],[293983.7254,5822351.0829],[293985.818,5822355.8024],[293989.3205,5822362.5106],[293993.9806,5822370.2279],[293998.6852,5822376.4018],[294004.7701,5822383.1099],[294011.0033,5822388.5714],[294017.0881,5822392.9644],[294023.6776,5822396.2294],[294029.8514,5822398.7227],[294036.5596,5822400.652],[294045.108,5822401.8987],[294054.6657,5822401.8987]],[[294047.5749,5822329.7652],[294044.9113,5822300.9093],[294048.6848,5822300.2434],[294051.3484,5822329.4322],[294047.5749,5822329.7652]]]]},"geometry_name":"the_geom","properties":{"Asset_Id":"2036651","Asset_Name":"Aintree Recreation Reserve - Cricket/Football Oval","Asset_Type":"Cricket/Football Oval","Asset_Subt":"Grass","Locality":"Aintree","fid":"2036651"}},{"type":"Feature","id":"ckan_91517082_af13_4663_84ce_604a92d24e86.11","geometry":{"type":"MultiPolygon","coordinates":[[[[294193.5572,5822327.3574],[294201.1198,5822326.8442],[294209.6007,5822324.5214],[294216.6637,5822321.7394],[294227.5214,5822315.0951],[294235.1516,5822308.1267],[294241.4447,5822299.5648],[294245.172,5822292.3803],[294248.6833,5822284.9257],[294252.6266,5822272.8796],[294254.9224,5822261.3466],[294255.5706,5822250.1918],[294255.1115,5822237.8215],[294253.1128,5822225.8834],[294250.871,5822217.6456],[294247.2247,5822208.0573],[294244.5103,5822202.3313],[294237.2853,5822190.1501],[294232.0995,5822183.4248],[294223.8887,5822175.5651],[294214.9486,5822169.8121],[294205.2387,5822165.7607],[294193.3546,5822163.3299],[294180.7413,5822163.2758],[294168.8977,5822166.0308],[294160.6869,5822169.434],[294153.0027,5822174.1606],[294145.7372,5822180.2647],[294139.5791,5822187.4492],[294133.2724,5822198.0368],[294128.4918,5822209.1917],[294125.0886,5822221.859],[294123.2655,5822233.6621],[294123.2385,5822245.8433],[294124.4269,5822257.9705],[294126.2635,5822267.2076],[294130.3014,5822279.3618],[294134.5149,5822288.464],[294141.7128,5822300.294],[294146.9797,5822306.9923],[294154.1236,5822314.1768],[294163.3338,5822320.3349],[294171.7742,5822324.1703],[294183.6043,5822326.9792],[294193.5572,5822327.3574]],[[294188.5248,5822259.7341],[294186.0277,5822231.2667],[294190.0786,5822230.9337],[294192.5202,5822259.4012],[294188.5248,5822259.7341]]]]},"geometry_name":"the_geom","properties":{"Asset_Id":"2036674","Asset_Name":"Aintree Recreation Reserve - Cricket/Football Oval","Asset_Type":"Cricket/Football Oval","Asset_Subt":"Grass","Locality":"Aintree","fid":"2036674"}},{"type":"Feature","id":"ckan_91517082_af13_4663_84ce_604a92d24e86.12","geometry":{"type":"MultiPolygon","coordinates":[[[[299799.992,5823212.597],[299793.0781,5823106.4693],[299726.4511,5823110.5366],[299728.8198,5823149.4227],[299726.4988,5823149.637],[299728.4359,5823177.9089],[299730.4713,5823177.8732],[299732.8905,5823216.6135],[299799.992,5823212.597]]]]},"geometry_name":"the_geom","properties":{"Asset_Id":"2082056","Asset_Name":"City Vista Recreation Reserve - Soccer Field 3","Asset_Type":"Soccer Field","Asset_Subt":"Grass","Locality":"Fraser Rise","fid":"2082056"}},{"type":"Feature","id":"ckan_91517082_af13_4663_84ce_604a92d24e86.13","geometry":{"type":"MultiPolygon","coordinates":[[[[299904.477,5823208.5999],[299978.2857,5823204.1364],[299975.9289,5823164.0719],[299979.7854,5823163.8934],[299977.7322,5823133.0416],[299973.965,5823133.2201],[299971.5547,5823093.3699],[299897.7013,5823097.878],[299904.477,5823208.5999]]]]},"geometry_name":"the_geom","properties":{"Asset_Id":"2082057","Asset_Name":"City Vista Recreation Reserve - Soccer Field 1","Asset_Type":"Soccer Field","Asset_Subt":"Synthetic Turf","Locality":"Fraser Rise","fid":"2082057"}},{"type":"Feature","id":"ckan_91517082_af13_4663_84ce_604a92d24e86.20","geometry":{"type":"MultiPolygon","coordinates":[[[[300626.8299,5821468.5238],[300635.7519,5821466.6142],[300644.0719,5821463.4749],[300652.7136,5821458.6258],[300660.2503,5821452.1272],[300667.2593,5821445.3385],[300673.5014,5821437.4101],[300677.6738,5821429.5417],[300681.0793,5821422.0033],[300683.0583,5821415.8145],[300684.5838,5821408.806],[300685.4826,5821403.567],[300686.3814,5821395.3487],[300686.7359,5821388.88],[300686.5298,5821383.6011],[300686.0185,5821378.3822],[300685.2105,5821373.4432],[300683.1655,5821364.685],[300680.5433,5821355.0369],[300677.2779,5821346.3887],[300673.724,5821338.4303],[300668.4549,5821330.202],[300663.4002,5821323.5333],[300657.3148,5821317.5946],[300650.0254,5821311.5958],[300641.7548,5821306.4568],[300634.581,5821302.9775],[300626.4093,5821299.9382],[300619.4168,5821298.6684],[300611.9049,5821298.6784],[300605.0526,5821298.9384],[300598.662,5821299.9382],[300590.4244,5821302.2577],[300582.4755,5821306.0269],[300574.0812,5821311.9557],[300567.1299,5821318.8543],[300561.6959,5821325.0631],[300556.4103,5821333.1514],[300551.1,5821344.0892],[300547.579,5821354.3771],[300545.1795,5821366.3547],[300544.4291,5821377.9223],[300544.9981,5821389.6899],[300546.9524,5821400.8376],[300550.7042,5821413.975],[300555.5693,5821426.2725],[300562.9081,5821439.0998],[300571.1292,5821449.6077],[300579.8698,5821456.6063],[300589.4102,5821461.7952],[300598.86,5821466.0743],[300609.5961,5821468.9437],[300617.9821,5821469.2237],[300626.8299,5821468.5238]],[[300606.8465,5821400.3466],[300602.9277,5821371.9916],[300624.7944,5821369.0813],[300628.1971,5821397.0909],[300606.8465,5821400.3466]]]]},"geometry_name":"the_geom","properties":{"Asset_Id":"46134","Asset_Name":"Caroline Springs Recreation Reserve - Cricket/Football Oval","Asset_Type":"Cricket/Football Oval","Asset_Subt":"Grass","Locality":"Caroline Springs","fid":"46134"}},{"type":"Feature","id":"ckan_91517082_af13_4663_84ce_604a92d24e86.21","geometry":{"type":"MultiPolygon","coordinates":[[[[300679.2817,5821635.1199],[300679.3065,5821630.2109],[300678.5396,5821624.932],[300670.838,5821573.3525],[300663.2353,5821517.4239],[300661.1986,5821504.3665],[300660.4482,5821501.0972],[300658.8815,5821498.4277],[300656.8942,5821495.5183],[300654.404,5821493.3588],[300651.8148,5821491.5891],[300648.3433,5821490.0994],[300644.7151,5821489.3696],[300641.021,5821489.2296],[300607.8067,5821493.4388],[300567.8638,5821500.1574],[300564.953,5821500.8473],[300562.7267,5821502.067],[300560.121,5821504.2166],[300558.1997,5821506.5261],[300556.8969,5821508.9056],[300555.7507,5821511.5151],[300554.7529,5821513.9646],[300554.1427,5821516.824],[300553.0625,5821523.1027],[300552.3122,5821529.1715],[300550.762,5821546.198],[300550.5641,5821554.5263],[300551.0506,5821561.125],[300551.8422,5821570.6431],[300553.3347,5821580.4511],[300554.9179,5821590.759],[300557.3586,5821601.9067],[300559.9726,5821611.3748],[300563.1472,5821620.9928],[300565.9178,5821629.1111],[300569.1255,5821636.7996],[300575.0377,5821650.2268],[300577.7094,5821654.7859],[300581.2304,5821658.9051],[300584.1576,5821661.1246],[300587.8188,5821663.4041],[300591.5871,5821664.8938],[300596.378,5821665.9436],[300601.5976,5821666.7835],[300607.345,5821666.9734],[300613.2985,5821666.8734],[300619.5818,5821666.2236],[300662.8807,5821654.4559],[300666.0224,5821652.6063],[300670.4092,5821648.4472],[300675.7442,5821642.4784],[300678.5149,5821638.6292],[300679.2817,5821635.1199]],[[300618.5037,5821558.8098],[300621.9031,5821584.1049],[300618.4579,5821584.8941],[300615.0155,5821559.2786],[300618.5037,5821558.8098]]]]},"geometry_name":"the_geom","properties":{"Asset_Id":"46135","Asset_Name":"Caroline Springs Recreation Reserve - Cricket/Football Oval","Asset_Type":"Cricket/Football Oval","Asset_Subt":"Grass","Locality":"Caroline Springs","fid":"46135"}},{"type":"Feature","id":"ckan_91517082_af13_4663_84ce_604a92d24e86.22","geometry":{"type":"MultiPolygon","coordinates":[[[[286300.1061,5823707.82],[286307.6428,5823767.6478],[286353.5144,5823814.5182],[286372.1253,5823836.1638],[286393.3089,5823850.011],[286405.5705,5823855.3899],[286413.5359,5823856.6796],[286423.2166,5823857.1095],[286432.6828,5823855.3899],[286438.4879,5823853.0304],[286445.5876,5823848.0814],[286452.4729,5823842.0526],[286456.769,5823836.8937],[286463.0111,5823826.7757],[286464.5201,5823819.4672],[286461.7165,5823784.6143],[286450.3208,5823696.6322],[286433.3261,5823680.7055],[286316.5071,5823693.6129],[286300.1061,5823707.82]],[[286385.7403,5823766.4597],[286382.9888,5823741.6958],[286386.1576,5823741.3438],[286388.9077,5823766.0944],[286385.7403,5823766.4597]]]]},"geometry_name":"the_geom","properties":{"Asset_Id":"46186","Asset_Name":"Melton South Recreation Reserve - Cricket/Football Oval","Asset_Type":"Cricket/Football Oval","Asset_Subt":"Grass","Locality":"Melton South","fid":"46186"}},{"type":"Feature","id":"ckan_91517082_af13_4663_84ce_604a92d24e86.23","geometry":{"type":"MultiPolygon","coordinates":[[[[285845.3052,5825362.4622],[285849.5322,5825362.3824],[285849.5322,5825336.0634],[285845.3052,5825336.0634],[285845.3052,5825362.4622]]]]},"geometry_name":"the_geom","properties":{"Asset_Id":"46450","Asset_Name":"Blackwood Drive Recreation Reserve - Cricket Wicket","Asset_Type":"Cricket/Football Oval","Asset_Subt":"Grass","Locality":"Melton South","fid":"46450"}},{"type":"Feature","id":"ckan_91517082_af13_4663_84ce_604a92d24e86.24","geometry":{"type":"MultiPolygon","coordinates":[[[[302285.6416,5821046.0574],[302289.6312,5821045.5326],[302286.3452,5821018.6377],[302282.351,5821019.1257],[302285.6416,5821046.0574]]]]},"geometry_name":"the_geom","properties":{"Asset_Id":"46505","Asset_Name":"Burnside Heights Recreation Reserve - Cricket Wicket","Asset_Type":"Cricket/Football Oval","Asset_Subt":"Grass","Locality":"Burnside Heights","fid":"46505"}},{"type":"Feature","id":"ckan_91517082_af13_4663_84ce_604a92d24e86.25","geometry":{"type":"MultiPolygon","coordinates":[[[[300618.4579,5821584.8941],[300621.9031,5821584.1049],[300618.5037,5821558.8098],[300615.0155,5821559.2786],[300618.4579,5821584.8941]]]]},"geometry_name":"the_geom","properties":{"Asset_Id":"46513","Asset_Name":"Caroline Springs Recreation Reserve - Cricket Wicket","Asset_Type":"Cricket/Football Oval","Asset_Subt":"Grass","Locality":"Caroline Springs","fid":"46513"}},{"type":"Feature","id":"ckan_91517082_af13_4663_84ce_604a92d24e86.26","geometry":{"type":"MultiPolygon","coordinates":[[[[287503.1803,5826457.2295],[287503.2133,5826502.4503],[287591.0482,5826502.4903],[287590.8997,5826458.0393],[287503.1803,5826457.2295]]]]},"geometry_name":"the_geom","properties":{"Asset_Id":"47506","Asset_Name":"Melton Recreation Reserve - Soccer Field","Asset_Type":"Soccer Field","Asset_Subt":"Grass","Locality":"Melton","fid":"47506"}},{"type":"Feature","id":"ckan_91517082_af13_4663_84ce_604a92d24e86.27","geometry":{"type":"MultiPolygon","coordinates":[[[[283327.3319,5828176.885],[283336.7017,5828164.7566],[283344.6307,5828150.7987],[283352.058,5828136.6144],[283348.5536,5828106.732],[283332.804,5828090.5101],[283322.7505,5828080.8156],[283311.9304,5828073.216],[283296.8214,5828066.6268],[283279.1297,5828061.7943],[283257.8424,5828061.1584],[283238.4361,5828064.7537],[283223.273,5828070.3025],[283205.8782,5828079.6429],[283189.7486,5828094.7335],[283181.4491,5828107.7101],[283171.217,5828127.5938],[283175.0638,5828157.6886],[283194.3129,5828182.1373],[283209.9631,5828193.3747],[283228.9385,5828200.8256],[283249.085,5828204.6827],[283276.247,5828203.0727],[283298.0718,5828196.465],[283313.0268,5828188.4503],[283327.3319,5828176.885]],[[283261.2191,5828147.1052],[283257.6754,5828119.6672],[283260.7634,5828119.161],[283264.1552,5828146.8014],[283261.2191,5828147.1052]]]]},"geometry_name":"the_geom","properties":{"Asset_Id":"48981","Asset_Name":"Arnolds Creek Recreation Reserve - Cricket/Football Oval","Asset_Type":"Cricket/Football Oval","Asset_Subt":"Grass","Locality":"Harkness","fid":"48981"}},{"type":"Feature","id":"ckan_91517082_af13_4663_84ce_604a92d24e86.28","geometry":{"type":"MultiPolygon","coordinates":[[[[283438.8,5828285.212],[283454.2105,5828282.3215],[283465.0863,5828277.1268],[283473.948,5828269.1336],[283481.2153,5828258.6137],[283486.0533,5828243.29],[283487.8499,5828234.109],[283488.78,5828221.923],[283488.5109,5828210.9948],[283486.3566,5828199.8255],[283482.0006,5828185.2225],[283475.7209,5828172.4817],[283469.9879,5828164.195],[283462.1583,5828156.011],[283450.9161,5828149.3519],[283445.1457,5828146.4304],[283436.3241,5828144.2734],[283419.5174,5828145.4239],[283412.4782,5828147.1058],[283405.856,5828149.4641],[283398.9393,5828153.6383],[283392.0799,5828159.3392],[283382.5538,5828170.5529],[283376.4486,5828184.514],[283374.3485,5828198.3761],[283374.7137,5828216.7892],[283378.0783,5828235.6013],[283383.5489,5828250.9968],[283388.5545,5828261.0227],[283395.7146,5828271.0415],[283403.5343,5828277.4222],[283413.8644,5828282.7166],[283425.2539,5828285.2446],[283438.8,5828285.212]],[[283431.5669,5828201.0698],[283434.25,5828229.2671],[283431.2126,5828229.4189],[283428.327,5828201.6267],[283431.5669,5828201.0698]]]]},"geometry_name":"the_geom","properties":{"Asset_Id":"48982","Asset_Name":"Arnolds Creek Recreation Reserve - Cricket/Football Oval","Asset_Type":"Cricket/Football Oval","Asset_Subt":"Grass","Locality":"Harkness","fid":"48982"}},{"type":"Feature","id":"ckan_91517082_af13_4663_84ce_604a92d24e86.29","geometry":{"type":"MultiPolygon","coordinates":[[[[283899.7549,5826862.0479],[283885.7946,5826862.6778],[283865.7571,5826866.1471],[283847.4018,5826876.445],[283838.521,5826895.2011],[283839.3373,5826914.7672],[283846.1402,5826931.2638],[283855.0045,5826943.1614],[283869.9213,5826956.8786],[283889.9588,5826963.2873],[283909.3119,5826962.3475],[283932.153,5826956.3887],[283948.0346,5826946.3707],[283957.9049,5826933.6333],[283960.8899,5826917.2766],[283956.7917,5826898.5105],[283949.758,5826880.6741],[283936.8944,5826869.6763],[283929.8029,5826867.2668],[283907.6957,5826862.2478],[283899.7549,5826862.0479]],[[283899.6758,5826924.3816],[283900.9594,5826921.2111],[283901.1096,5826901.0787],[283899.8095,5826897.9083],[283903.8206,5826898.1757],[283902.875,5826900.8534],[283902.875,5826921.1736],[283903.8206,5826924.2478],[283899.6758,5826924.3816]]]]},"geometry_name":"the_geom","properties":{"Asset_Id":"5009","Asset_Name":"Arthur Westlake Recreation Reserve - Cricket/Football Oval","Asset_Type":"Cricket/Football Oval","Asset_Subt":"Grass","Locality":"Melton West","fid":"5009"}},{"type":"Feature","id":"ckan_91517082_af13_4663_84ce_604a92d24e86.30","geometry":{"type":"MultiPolygon","coordinates":[[[[285878.4211,5825632.3179],[285890.2868,5825631.2881],[285901.798,5825629.2585],[285913.1196,5825626.5491],[285924.2185,5825622.3999],[285934.0146,5825617.111],[285943.588,5825610.3524],[285952.1554,5825603.6238],[285960.5744,5825595.0255],[285965.7033,5825586.8372],[285969.1254,5825578.4789],[285970.6838,5825570.6305],[285971.3352,5825561.3224],[285970.7333,5825552.7741],[285968.9522,5825544.1559],[285966.767,5825536.9574],[285963.0894,5825528.679],[285958.2491,5825521.9604],[285951.5039,5825515.9416],[285943.9342,5825510.9327],[285934.3773,5825506.0637],[285924.4823,5825502.6144],[285914.3234,5825500.2148],[285904.1233,5825498.8351],[285893.7252,5825498.3452],[285882.4449,5825498.5952],[285872.0716,5825499.455],[285748.656,5825514.282],[285765.288,5825643.1857],[285878.4211,5825632.3179]],[[285807.0771,5825593.0926],[285804.2462,5825566.9758],[285807.8989,5825566.2452],[285811.232,5825592.5447],[285807.0771,5825593.0926]],[[285869.5384,5825582.2258],[285866.5249,5825552.228],[285886.3865,5825549.4885],[285890.5414,5825579.532],[285869.5384,5825582.2258]]]]},"geometry_name":"the_geom","properties":{"Asset_Id":"5035","Asset_Name":"Blackwood Drive Recreation Reserve - Cricket/Football Oval","Asset_Type":"Cricket/Football Oval","Asset_Subt":"Grass","Locality":"Melton South","fid":"5035"}},{"type":"Feature","id":"ckan_91517082_af13_4663_84ce_604a92d24e86.31","geometry":{"type":"MultiPolygon","coordinates":[[[[300575.516,5819988.5249],[300565.2994,5819989.7647],[300557.7379,5819991.4144],[300551.067,5819993.374],[300540.8752,5819997.4032],[300530.6503,5820002.5421],[300520.6399,5820009.1408],[300512.0642,5820016.6393],[300505.1954,5820025.5275],[300499.5223,5820035.7654],[300496.2981,5820043.9537],[300494.6077,5820052.8519],[300494.2532,5820060.1804],[300494.7562,5820068.6287],[300496.5373,5820076.797],[300500.0252,5820084.1855],[300506.1437,5820093.2637],[300513.2104,5820100.4922],[300520.6399,5820106.651],[300528.7208,5820111.64],[300538.3602,5820116.109],[300548.5438,5820119.3384],[300554.0355,5820120.7481],[300560.6487,5820121.9379],[300571.393,5820122.5577],[300583.0939,5820122.2478],[300595.8584,5820120.6981],[300609.563,5820117.0488],[300620.9093,5820112.9797],[300632.3298,5820106.7309],[300642.8433,5820099.5224],[300651.3117,5820091.374],[300658.8814,5820081.476],[300663.7547,5820071.678],[300667.152,5820060.4703],[300667.8529,5820054.1916],[300667.7704,5820047.5029],[300666.6737,5820040.1344],[300663.2847,5820031.1963],[300659.2525,5820022.528],[300653.7525,5820014.6496],[300646.9992,5820007.801],[300638.8605,5820001.8922],[300630.491,5819997.5131],[300622.7152,5819993.9338],[300615.7392,5819991.6043],[300604.6815,5819989.0548],[300593.1703,5819987.7251],[300583.9679,5819987.7951],[300575.516,5819988.5249]],[[300569.2012,5820069.9354],[300564.9488,5820070.1379],[300564.9488,5820043.8137],[300569.2012,5820043.8137],[300569.2012,5820069.9354]]]]},"geometry_name":"the_geom","properties":{"Asset_Id":"5051","Asset_Name":"Brookside Recreation Reserve - Cricket/Football Oval","Asset_Type":"Cricket/Football Oval","Asset_Subt":"Grass","Locality":"Caroline Springs","fid":"5051"}},{"type":"Feature","id":"ckan_91517082_af13_4663_84ce_604a92d24e86.32","geometry":{"type":"MultiPolygon","coordinates":[[[[300515.3657,5820222.2697],[300536.3279,5820219.1074],[300539.4839,5820221.5946],[300543.4769,5820223.6008],[300548.5466,5820225.523],[300553.2924,5820226.4935],[300557.9995,5820227.2454],[300563.4622,5820227.7666],[300568.2082,5820227.6146],[300572.941,5820227.032],[300577.1418,5820226.378],[300581.5735,5820224.4592],[300585.6643,5820222.6019],[300589.602,5820220.4403],[300593.4977,5820218.0591],[300597.8369,5820214.2848],[300602.9206,5820208.9729],[300623.5848,5820205.8003],[300623.3581,5820202.7114],[300626.5742,5820201.3417],[300629.8313,5820199.692],[300632.973,5820198.1524],[300616.8496,5820160.526],[300612.1579,5820132.5594],[300591.0425,5820135.8784],[300586.6489,5820133.073],[300578.7787,5820129.751],[300574.9982,5820128.8326],[300568.6809,5820127.8012],[300561.84,5820127.6017],[300554.856,5820127.9928],[300547.5759,5820130.087],[300540.9143,5820133.0179],[300535.8375,5820135.9756],[300531.3495,5820139.2924],[300527.6258,5820142.5497],[300525.0149,5820146.257],[300503.6572,5820149.6141],[300515.3657,5820222.2697]],[[300564.5438,5820190.4194],[300560.5952,5820164.7026],[300562.5811,5820164.3977],[300566.5401,5820190.1822],[300564.5438,5820190.4194]]]]},"geometry_name":"the_geom","properties":{"Asset_Id":"5056","Asset_Name":"Brookside Recreation Reserve - Soccer Field","Asset_Type":"Soccer Field","Asset_Subt":"Synthetic Turf","Locality":"Caroline Springs","fid":"5056"}},{"type":"Feature","id":"ckan_91517082_af13_4663_84ce_604a92d24e86.33","geometry":{"type":"MultiPolygon","coordinates":[[[[297799.9257,5833855.5025],[297807.8087,5833854.0428],[297816.8379,5833850.5035],[297825.5291,5833845.9944],[297832.5463,5833841.1854],[297838.2112,5833834.3668],[297842.7299,5833826.8683],[297847.6444,5833817.1403],[297850.4893,5833805.9826],[297851.3056,5833794.7849],[297850.8356,5833783.7171],[297848.6174,5833772.5894],[297844.7996,5833760.9418],[297840.0005,5833750.4739],[297834.0965,5833741.0858],[297826.098,5833731.1278],[297817.0111,5833722.2796],[297805.6977,5833714.7012],[297795.7862,5833709.8522],[297784.8027,5833708.2025],[297771.9639,5833708.1225],[297761.3103,5833709.5022],[297751.7781,5833711.7518],[297742.1222,5833717.9605],[297734.3463,5833725.7289],[297726.9168,5833735.187],[297722.093,5833744.875],[297719.5203,5833758.0323],[297718.8112,5833770.4298],[297720.0068,5833785.1068],[297722.9341,5833798.0642],[297727.9806,5833809.1719],[297735.2039,5833819.7898],[297742.8561,5833829.1679],[297751.4318,5833837.7361],[297760.2548,5833844.2048],[297767.6514,5833848.9238],[297774.479,5833852.4231],[297780.82,5833854.0428],[297787.0786,5833855.0226],[297792.4467,5833855.5925],[297799.9257,5833855.5025]],[[297778.0451,5833769.8965],[297780.7351,5833768.0711],[297793.801,5833792.4735],[297791.8795,5833793.8185],[297778.0451,5833769.8965]]]]},"geometry_name":"the_geom","properties":{"Asset_Id":"5112","Asset_Name":"Diggers Rest Recreation Reserve - Cricket/Football Oval","Asset_Type":"Cricket/Football Oval","Asset_Subt":"Grass","Locality":"Diggers Rest","fid":"5112"}},{"type":"Feature","id":"ckan_91517082_af13_4663_84ce_604a92d24e86.34","geometry":{"type":"MultiPolygon","coordinates":[[[[297592.5341,5833851.0034],[297606.1645,5833848.4439],[297618.2282,5833844.9647],[297626.4658,5833841.3454],[297634.2664,5833837.2262],[297640.088,5833833.397],[297646.2889,5833828.638],[297652.3001,5833822.7492],[297658.1134,5833815.6506],[297663.8855,5833806.0226],[297666.0624,5833800.3237],[297668.1981,5833793.3652],[297669.1876,5833784.7069],[297669.2453,5833780.2778],[297668.9072,5833775.3388],[297668.4042,5833771.3596],[297667.4807,5833767.9603],[297666.2686,5833763.9711],[297664.7183,5833760.3719],[297662.9207,5833756.5826],[297660.7851,5833752.5435],[297658.0392,5833748.5843],[297654.5677,5833744.3951],[297651.1044,5833740.9558],[297647.7566,5833738.0664],[297644.3263,5833735.317],[297639.519,5833732.0476],[297633.2027,5833728.6883],[297627.3316,5833726.2488],[297620.3968,5833723.8193],[297613.6847,5833721.9697],[297605.7687,5833720.39],[297598.2155,5833719.5602],[297591.5941,5833719.0903],[297584.1646,5833719.1303],[297578.0379,5833719.7002],[297571.6721,5833720.69],[297563.789,5833722.1397],[297554.7763,5833724.5292],[297548.0147,5833727.0886],[297541.8633,5833730.058],[297535.1347,5833733.8773],[297529.445,5833737.7565],[297524.2419,5833742.1756],[297520.1437,5833746.5247],[297516.3176,5833750.9438],[297513.11,5833755.3429],[297509.4571,5833760.8518],[297506.6617,5833766.1107],[297504.1962,5833772.7294],[297502.646,5833778.7981],[297501.9121,5833784.9269],[297501.8297,5833791.2356],[297502.143,5833796.8145],[297503.4789,5833803.0932],[297506.101,5833809.1519],[297509.4571,5833815.3307],[297513.1183,5833820.9695],[297516.8784,5833825.7086],[297522.3371,5833830.5676],[297528.0927,5833834.8167],[297532.8506,5833838.0361],[297538.2434,5833841.1954],[297543.1332,5833843.5249],[297549.3835,5833846.1744],[297556.475,5833848.6239],[297564.2096,5833850.4135],[297570.9465,5833851.1434],[297578.4832,5833851.5633],[297585.352,5833851.5233],[297592.5341,5833851.0034]],[[297604.2236,5833789.9383],[297597.3544,5833765.0075],[297601.4375,5833763.9987],[297608.3547,5833788.8334],[297604.2236,5833789.9383]]]]},"geometry_name":"the_geom","properties":{"Asset_Id":"5116","Asset_Name":"Diggers Rest Recreation Reserve - Cricket/Football Oval","Asset_Type":"Cricket/Football Oval","Asset_Subt":"Grass","Locality":"Diggers Rest","fid":"5116"}},{"type":"Feature","id":"ckan_91517082_af13_4663_84ce_604a92d24e86.35","geometry":{"type":"MultiPolygon","coordinates":[[[[293795.5837,5821386.5708],[293805.3138,5821385.1511],[293818.6309,5821381.7118],[293839.3857,5821373.4535],[293855.3166,5821364.0854],[293868.7574,5821348.6485],[293877.7123,5821329.2225],[293880.351,5821311.6261],[293877.1846,5821293.8997],[293868.3533,5821276.5732],[293856.9081,5821265.2955],[293843.9868,5821256.4173],[293828.6496,5821249.2688],[293812.7681,5821245.7595],[293795.1549,5821244.7597],[293781.2772,5821246.0794],[293766.5418,5821250.0486],[293752.1034,5821256.1274],[293736.7084,5821265.1755],[293726.2691,5821273.6838],[293717.7017,5821284.6915],[293711.3112,5821296.8491],[293707.6913,5821311.1962],[293707.4769,5821323.1837],[293710.1897,5821338.0207],[293717.5121,5821352.3078],[293727.3494,5821364.2154],[293737.3186,5821371.3439],[293746.8673,5821377.3627],[293757.6858,5821381.8518],[293769.8567,5821385.481],[293782.0853,5821386.7908],[293795.5837,5821386.5708]],[[293793.6726,5821329.8726],[293791.511,5821304.1252],[293795.45,5821303.837],[293797.9479,5821329.6324],[293793.6726,5821329.8726]]]]},"geometry_name":"the_geom","properties":{"Asset_Id":"5181","Asset_Name":"Ian Cowie Recreation Reserve - Cricket/Football Oval","Asset_Type":"Cricket/Football Oval","Asset_Subt":"Grass","Locality":"Rockbank","fid":"5181"}},{"type":"Feature","id":"ckan_91517082_af13_4663_84ce_604a92d24e86.36","geometry":{"type":"MultiPolygon","coordinates":[[[[286698.7085,5827932.8659],[286698.3035,5827932.6634],[286704.5808,5827946.028],[286722.6028,5827966.8848],[286754.3943,5827978.427],[286786.5908,5827977.8195],[286813.5225,5827965.4674],[286835.1893,5827945.8255],[286838.4291,5827926.5885],[286836.2017,5827900.6693],[286831.3418,5827891.3546],[286801.5752,5827877.585],[286759.4565,5827873.5351],[286716.5279,5827885.6848],[286697.4935,5827907.5541],[286698.7085,5827932.8659]]]]},"geometry_name":"the_geom","properties":{"Asset_Id":"5198","Asset_Name":"Kurunjang Recreation Reserve - Cricket/Football Oval","Asset_Type":"Cricket/Football Oval","Asset_Subt":"Grass","Locality":"Kurunjang","fid":"5198"}},{"type":"Feature","id":"ckan_91517082_af13_4663_84ce_604a92d24e86.37","geometry":{"type":"MultiPolygon","coordinates":[[[[285460.977,5831868.8184],[285465.3802,5831872.3776],[285471.5811,5831876.5468],[285478.1613,5831880.0661],[285486.5556,5831883.9153],[285495.3952,5831885.8049],[285505.9004,5831887.0846],[285515.3089,5831886.7347],[285524.668,5831885.125],[285533.1942,5831881.6357],[285540.096,5831877.7065],[285546.907,5831872.7476],[285553.2316,5831866.5488],[285558.946,5831859.7802],[285563.407,5831852.3717],[285567.1011,5831845.0432],[285569.9872,5831836.8849],[285572.0156,5831828.9265],[285573.1535,5831820.1983],[285573.8627,5831809.7504],[285573.3926,5831800.8822],[285572.2877,5831793.3437],[285570.1602,5831785.0054],[285567.6617,5831777.417],[285563.8192,5831768.3288],[285559.7869,5831760.2705],[285554.4931,5831753.0919],[285548.1108,5831745.0835],[285541.6295,5831738.4349],[285535.9729,5831733.036],[285529.7885,5831728.4669],[285522.7218,5831724.4178],[285514.5419,5831720.6285],[285507.5329,5831718.119],[285500.3425,5831716.4894],[285492.8882,5831715.6196],[285485.97,5831715.5596],[285479.5547,5831716.1695],[285473.4693,5831717.4592],[285465.1904,5831720.2486],[285457.3981,5831724.2578],[285451.0158,5831728.307],[285445.7797,5831733.176],[285441.1043,5831738.5049],[285436.6433,5831744.8136],[285432.2977,5831751.6522],[285428.3975,5831759.5906],[285426.0969,5831766.5692],[285424.7775,5831773.3778],[285423.8705,5831780.0964],[285423.5159,5831788.0048],[285423.4995,5831794.9234],[285423.9365,5831802.3419],[285425.1651,5831810.4903],[285427.1524,5831817.8588],[285428.7851,5831823.5476],[285431.5969,5831830.3062],[285434.986,5831837.5447],[285438.9275,5831844.0434],[285442.2176,5831848.5625],[285445.3263,5831852.5317],[285448.9792,5831857.1807],[285452.962,5831861.3899],[285456.5737,5831865.0591],[285460.977,5831868.8184]],[[285493.2122,5831819.7883],[285484.505,5831796.0966],[285505.9693,5831787.7943],[285515.1829,5831812.1948],[285493.2122,5831819.7883]]]]},"geometry_name":"the_geom","properties":{"Asset_Id":"5215","Asset_Name":"MacPherson Park - Cricket/Football Oval","Asset_Type":"Cricket/Football Oval","Asset_Subt":"Grass","Locality":"Harkness","fid":"5215"}},{"type":"Feature","id":"ckan_91517082_af13_4663_84ce_604a92d24e86.38","geometry":{"type":"MultiPolygon","coordinates":[[[[285609.6085,5831827.8767],[285611.8514,5831835.2452],[285615.0155,5831842.3476],[285625.9678,5831848.6403],[285623.0376,5831853.7321],[285624.1542,5831855.1811],[285629.6625,5831861.9897],[285635.113,5831867.5386],[285641.6685,5831872.6776],[285648.8753,5831876.7967],[285656.6842,5831880.146],[285665.969,5831883.2154],[285674.2808,5831885.385],[285683.1369,5831887.1246],[285691.3168,5831887.8944],[285700.3295,5831888.0144],[285708.7733,5831887.0546],[285716.3924,5831885.205],[285723.3684,5831882.1656],[285729.7342,5831878.0065],[285734.2612,5831873.5074],[285738.2109,5831867.8985],[285742.0865,5831861.9897],[285745.088,5831855.641],[285747.4628,5831849.2823],[285749.384,5831842.3137],[285750.8106,5831833.7755],[285750.926,5831827.0268],[285750.2498,5831820.2382],[285748.5594,5831812.6398],[285745.294,5831803.8915],[285740.9649,5831795.4533],[285735.7288,5831787.065],[285729.3053,5831778.7167],[285722.7415,5831772.4679],[285715.5676,5831766.9291],[285706.3982,5831760.8103],[285697.9297,5831755.7014],[285689.5767,5831751.3123],[285679.7888,5831747.0131],[285672.2521,5831744.0537],[285664.567,5831741.5043],[285658.498,5831740.6344],[285652.8579,5831740.5744],[285646.3519,5831741.8142],[285640.4973,5831743.7638],[285634.3377,5831746.3533],[285628.5409,5831749.7426],[285623.9314,5831753.4818],[285620.1713,5831757.321],[285617.2358,5831760.6704],[285614.9847,5831764.0897],[285613.319,5831767.169],[285612.346,5831770.7283],[285611.9997,5831773.2578],[285608.6107,5831815.5192],[285608.7097,5831821.278],[285609.6085,5831827.8767]],[[285667.003,5831830.5205],[285667.1042,5831804.7025],[285685.9361,5831804.7025],[285685.6324,5831830.723],[285667.003,5831830.5205]]]]},"geometry_name":"the_geom","properties":{"Asset_Id":"5218","Asset_Name":"MacPherson Park - Cricket/Football Oval","Asset_Type":"Cricket/Football Oval","Asset_Subt":"Grass","Locality":"Harkness","fid":"5218"}},{"type":"Feature","id":"ckan_91517082_af13_4663_84ce_604a92d24e86.39","geometry":{"type":"MultiPolygon","coordinates":[[[[285342.7379,5831671.1479],[285347.422,5831680.7875],[285351.5629,5831686.4898],[285355.3645,5831691.106],[285359.9128,5831695.5185],[285365.0721,5831699.6595],[285370.9102,5831703.5968],[285383.6046,5831708.8239],[285397.9962,5831729.6646],[285405.9388,5831724.2338],[285408.8578,5831728.3069],[285415.7142,5831723.6228],[285412.7951,5831719.3461],[285461.6043,5831685.2679],[285447.2806,5831664.1557],[285447.5521,5831657.8424],[285447.2127,5831652.7511],[285444.701,5831641.3464],[285442.8681,5831636.7981],[285440.56,5831631.4353],[285437.3015,5831625.665],[285433.2963,5831619.9627],[285428.748,5831615.0071],[285423.453,5831610.1194],[285413.8812,5831603.3988],[285402.4765,5831599.19],[285387.8134,5831578.4172],[285378.1737,5831584.5269],[285375.3226,5831580.8611],[285368.1268,5831585.613],[285370.8422,5831589.6861],[285324.409,5831622.8139],[285338.529,5831643.4509],[285338.2575,5831649.6963],[285338.3933,5831653.8373],[285340.0904,5831663.2732],[285342.7379,5831671.1479]]]]},"geometry_name":"the_geom","properties":{"Asset_Id":"5220","Asset_Name":"MacPherson Park - Cricket/Football Oval","Asset_Type":"Cricket/Football Oval","Asset_Subt":"Synthetic Turf","Locality":"Harkness","fid":"5220"}},{"type":"Feature","id":"ckan_91517082_af13_4663_84ce_604a92d24e86.40","geometry":{"type":"MultiPolygon","coordinates":[[[[284988.1183,5831639.5651],[285058.175,5831611.1809],[285013.2929,5831499.8536],[284942.7826,5831528.6677],[284988.1183,5831639.5651]]]]},"geometry_name":"the_geom","properties":{"Asset_Id":"5221","Asset_Name":"MacPherson Park - Rugby Field","Asset_Type":"Rugby Field","Asset_Subt":"Grass","Locality":"Harkness","fid":"5221"}},{"type":"Feature","id":"ckan_91517082_af13_4663_84ce_604a92d24e86.42","geometry":{"type":"MultiPolygon","coordinates":[[[[285125.8847,5831718.1018],[285171.4231,5831832.0436],[285250.9711,5831800.3397],[285205.0484,5831686.7822],[285125.8847,5831718.1018]]]]},"geometry_name":"the_geom","properties":{"Asset_Id":"5224","Asset_Name":"MacPherson Park - Soccer Field","Asset_Type":"Soccer Field","Asset_Subt":"Grass","Locality":"Harkness","fid":"5224"}},{"type":"Feature","id":"ckan_91517082_af13_4663_84ce_604a92d24e86.43","geometry":{"type":"MultiPolygon","coordinates":[[[[284947.3179,5831832.6382],[285044.9276,5831797.2835],[285036.6778,5831775.1326],[285051.0815,5831753.8158],[285054.3958,5831733.7871],[285050.9485,5831707.1169],[285027.9322,5831686.7676],[284996.1363,5831677.9136],[284976.2458,5831680.8039],[284905.2293,5831711.0534],[284947.3179,5831832.6382]],[[284970.9174,5831753.202],[284970.101,5831750.5026],[284995.1932,5831740.7745],[284995.9023,5831743.464],[284970.9174,5831753.202]]]]},"geometry_name":"the_geom","properties":{"Asset_Id":"5227","Asset_Name":"MacPherson Park - Soccer Field","Asset_Type":"Soccer Field","Asset_Subt":"Grass","Locality":"Harkness","fid":"5227"}},{"type":"Feature","id":"ckan_91517082_af13_4663_84ce_604a92d24e86.44","geometry":{"type":"MultiPolygon","coordinates":[[[[286091.3373,5823952.7201],[286089.6304,5823943.9719],[286086.4227,5823935.4936],[286082.91,5823928.825],[286078.2676,5823922.4663],[286071.8193,5823915.8376],[286064.6949,5823910.6087],[286056.8943,5823906.7295],[286051.2129,5823904.6499],[286045.482,5823903.3501],[286041.0952,5823902.7303],[286036.3291,5823902.5303],[286031.7526,5823902.6203],[286027.0442,5823903.1202],[286018.2047,5823905.3797],[286012.4985,5823907.7592],[286008.3756,5823909.8388],[286000.7317,5823915.2077],[285997.0128,5823918.627],[285994.3081,5823921.5664],[285990.9933,5823925.6656],[285987.8846,5823930.5546],[285985.6994,5823934.6138],[285984.0503,5823938.473],[285982.2032,5823944.1018],[285981.0075,5823949.6307],[285980.488,5823954.2798],[285980.2654,5823958.149],[285980.3314,5823961.2883],[285980.5375,5823964.9176],[285981.3456,5823970.4365],[285982.4258,5823974.9256],[285984.1162,5823980.0645],[285984.2564,5823980.3545],[285984.9326,5823982.0741],[285986.7302,5823985.7034],[285988.6762,5823989.2226],[285990.7212,5823992.332],[285993.2939,5823995.6913],[285993.5907,5823996.0912],[285996.3119,5823999.0906],[286000.1215,5824002.6599],[286003.593,5824005.4493],[286006.9985,5824007.7089],[286007.8313,5824008.2488],[286011.0802,5824010.0284],[286014.3951,5824011.6081],[286018.2541,5824013.0578],[286021.8576,5824014.1576],[286026.0959,5824015.0774],[286030.6724,5824015.7073],[286035.4055,5824015.9072],[286040.1387,5824015.7972],[286044.3605,5824015.3073],[286044.946,5824015.1874],[286050.5779,5824013.9476],[286055.1049,5824012.4079],[286059.871,5824010.5283],[286063.8703,5824008.3288],[286071.6791,5824002.8599],[286072.9407,5824001.5102],[286079.4632,5823994.4016],[286084.0397,5823987.623],[286087.6431,5823979.7746],[286090.5292,5823970.3065],[286091.6094,5823962.0982],[286091.3373,5823952.7201]],[[286035.6972,5823976.3196],[286034.3042,5823951.4369],[286037.5226,5823951.4369],[286038.3392,5823976.2716],[286035.6972,5823976.3196]]]]},"geometry_name":"the_geom","properties":{"Asset_Id":"5293","Asset_Name":"Mt Carberry Reserve - Cricket/Football Oval","Asset_Type":"Cricket/Football Oval","Asset_Subt":"Grass","Locality":"Melton South","fid":"5293"}},{"type":"Feature","id":"ckan_91517082_af13_4663_84ce_604a92d24e86.45","geometry":{"type":"MultiPolygon","coordinates":[[[[297783.883,5833682.5855],[297783.8844,5833682.6022],[297783.5885,5833679.1274],[297781.9553,5833661.1315],[297801.3897,5833659.8097],[297818.3412,5833638.1425],[297801.9077,5833628.9969],[297793.6195,5833623.9954],[297791.3331,5833618.7081],[297779.7582,5833614.564],[297761.9671,5833610.7057],[297759.6807,5833610.5628],[297750.2493,5833607.7048],[297742.3183,5833603.4178],[297744.6047,5833591.2713],[297744.3189,5833587.0557],[297744.3904,5833583.126],[297740.2463,5833570.6222],[297737.2454,5833564.7634],[297734.0301,5833560.8336],[297727.6108,5833558.672],[297714.6671,5833558.7616],[297701.949,5833560.4764],[297688.7307,5833563.2629],[297681.943,5833566.6925],[297676.7271,5833572.7657],[297673.8691,5833578.4817],[297673.8691,5833581.1968],[297678.7635,5833638.3568],[297682.7647,5833674.582],[297684.0151,5833679.6549],[297686.8731,5833684.192],[297689.8382,5833687.05],[297691.946,5833688.3718],[297694.6968,5833688.8362],[297783.883,5833682.5855]]]]},"geometry_name":"the_geom","properties":{"Asset_Id":"718","Asset_Name":"Diggers Rest Undeveloped Reserve - Cricket/Football Oval","Asset_Type":"Cricket/Football Oval","Asset_Subt":"Grass","Locality":"Diggers Rest","fid":"718"}},{"type":"Feature","id":"ckan_91517082_af13_4663_84ce_604a92d24e86.46","geometry":{"type":"MultiPolygon","coordinates":[[[[300592.1498,5826833.3617],[300598.3919,5826832.0819],[300604.8484,5826830.0024],[300612.1378,5826827.023],[300619.6662,5826823.0338],[300627.0958,5826817.6149],[300632.9998,5826811.5861],[300638.5905,5826804.9874],[300644.0327,5826796.7491],[300648.0732,5826787.9509],[300650.7284,5826779.0327],[300651.6107,5826770.2645],[300651.3963,5826762.2861],[300650.0028,5826753.7779],[300647.5785,5826745.0996],[300645.1789,5826738.9109],[300641.8806,5826732.4122],[300637.1392,5826725.6436],[300629.9076,5826717.2853],[300620.3094,5826708.4671],[300613.7457,5826703.778],[300605.6978,5826699.7789],[300597.5921,5826696.0596],[300587.6888,5826692.6903],[300578.6184,5826690.7507],[300568.443,5826689.451],[300561.2526,5826689.141],[300553.617,5826689.6409],[300545.6515,5826690.5907],[300539.4423,5826691.9705],[300531.5098,5826694.29],[300524.5833,5826696.8295],[300517.195,5826700.3987],[300510.6395,5826704.4879],[300505.1396,5826708.917],[300500.4477,5826713.5661],[300496.2175,5826718.2451],[300492.4492,5826723.1441],[300489.2168,5826727.8132],[300486.7513,5826732.6622],[300484.5579,5826738.1011],[300482.9499,5826743.6799],[300481.4987,5826750.0786],[300480.9709,5826756.3974],[300481.0204,5826764.2358],[300481.6224,5826769.6247],[300483.5107,5826777.0931],[300485.8442,5826784.1717],[300488.6313,5826790.0005],[300491.7153,5826794.9395],[300495.4094,5826800.0885],[300499.3839,5826805.0274],[300504.0923,5826809.8165],[300508.273,5826813.6757],[300512.9401,5826817.3449],[300517.8382,5826820.5043],[300522.7444,5826823.2437],[300528.8546,5826825.9732],[300537.7766,5826828.7826],[300544.6537,5826830.5123],[300551.4812,5826831.962],[300558.8778,5826833.1717],[300567.4452,5826834.1715],[300576.0869,5826834.5314],[300583.838,5826834.1715],[300592.1498,5826833.3617]],[[300555.6268,5826776.5353],[300556.9718,5826750.4997],[300578.2038,5826752.7094],[300576.5706,5826777.8803],[300555.6268,5826776.5353]]]]},"geometry_name":"the_geom","properties":{"Asset_Id":"988","Asset_Name":"Hillside Recreation Reserve - Cricket/Football Oval","Asset_Type":"Cricket/Football Oval","Asset_Subt":"Grass","Locality":"Hillside","fid":"988"}}],"totalFeatures":46,"numberMatched":46,"numberReturned":46,"timeStamp":"2026-09-10T09:36:07.584Z","crs":{"type":"name","properties":{"name":"urn:ogc:def:crs:EPSG::4326"}}}